1 58278U 23174Y   23350.19229799  .00005893  00000-0  32490-3 0  9994
2 58278  97.4762  62.5199 0010663 147.6547 212.5341 15.14313178  5815